NORAD_CAT_ID,OBJECT_NAME,OBJECT_TYPE,EPOCH,MEAN_MOTION,ECCENTRICITY,INCLINATION,RA_OF_ASC_NODE,ARG_OF_PERICENTER,MEAN_ANOMALY,BSTAR,MEAN_MOTION_DOT,MEAN_MOTION_DDOT,TLE_LINE0,TLE_LINE1,TLE_LINE2,SEMIMAJOR_AXIS,PERIOD,APOGEE,PERIGEE,DECAYED
52462.0,STARLINK-3903,PAYLOAD,2023-02-16 06:21:28,15.08858528,0.0001211,53.2181,35.4384,99.0202,261.0928,0.00070312,0.00010926,0.0,0 STARLINK-3903,1 52462U 22049M   23047.26491130  .00010926  00000-0  70312-3 0  9992,2 52462  53.2181  35.4384 0001211  99.0202 261.0928 15.08858528 43718,6917.824,95.436,540.527,538.851,0.0
52462.0,STARLINK-3903,PAYLOAD,2023-02-16 09:32:14,15.08872436,0.0001401,53.2173,34.8387,82.5241,277.5911,0.0012271,0.00019313,0.0,0 STARLINK-3903,1 52462U 22049M   23047.39738901  .00019313  00000-0  12271-2 0  9994,2 52462  53.2173  34.8387 0001401  82.5241 277.5911 15.08872436 43578,6917.781,95.436,540.615,538.677,0.0
52462.0,STARLINK-3903,PAYLOAD,2023-02-16 15:53:47,15.08827947,0.0001878,53.2177,33.6512,90.6396,269.4811,-0.00051058,-8.402e-05,0.0,0 STARLINK-3903,1 52462U 22049M   23047.66235852 -.00008402  00000-0 -51058-3 0  9997,2 52462  53.2177  33.6512 0001878  90.6396 269.4811 15.08827947 43776,6917.917,95.438,541.081,538.483,0.0
52462.0,STARLINK-3903,PAYLOAD,2023-02-17 10:58:26,15.08826524,0.0001324,53.2161,30.0804,77.7157,282.3983,-0.00010195,-1.909e-05,0.0,0 STARLINK-3903,1 52462U 22049M   23048.45724815 -.00001909  00000-0 -10195-3 0  9999,2 52462  53.2161  30.0804 0001324  77.7157 282.3983 15.08826524 43731,6917.922,95.438,540.703,538.871,0.0
52462.0,STARLINK-3903,PAYLOAD,2023-02-17 15:44:35,15.0882783,0.0001057,53.2174,29.1884,77.4928,282.6182,-2.4486e-05,-6.77e-06,0.0,0 STARLINK-3903,1 52462U 22049M   23048.65596739 -.00000677  00000-0 -24486-4 0  9993,2 52462  53.2174  29.1884 0001057  77.4928 282.6182 15.08827830 43924,6917.918,95.438,540.514,539.051,0.0
52462.0,STARLINK-3903,PAYLOAD,2023-02-18 10:49:13,15.08840979,8.95e-05,53.2177,25.6211,82.0277,278.0817,0.00055724,8.592e-05,0.0,0 STARLINK-3903,1 52462U 22049M   23049.45085109  .00008592  00000-0  55724-3 0  9996,2 52462  53.2177  25.6211 0000895  82.0277 278.0817 15.08840979 44047,6917.877,95.437,540.362,539.123,0.0
52462.0,STARLINK-3903,PAYLOAD,2023-02-19 07:29:13,15.08863566,8.28e-05,53.2167,21.7558,80.6443,279.4643,0.00085585,0.00013368,0.0,0 STARLINK-3903,1 52462U 22049M   23050.31196715  .00013368  00000-0  85585-3 0  9994,2 52462  53.2167  21.7558 0000828  80.6443 279.4643 15.08863566 44018,6917.808,95.436,540.246,539.101,0.0
52462.0,STARLINK-3903,PAYLOAD,2023-02-19 15:26:09,15.08847846,0.0001699,53.217,20.2709,66.7067,293.4104,0.00017408,2.484e-05,0.0,0 STARLINK-3903,1 52462U 22049M   23050.64316650  .00002484  00000-0  17408-3 0  9998,2 52462  53.2170  20.2709 0001699  66.7067 293.4104 15.08847846 44222,6917.856,95.437,540.897,538.546,0.0
52462.0,STARLINK-3903,PAYLOAD,2023-02-20 08:55:23,15.08859359,0.0001149,53.2181,16.9981,90.6374,269.475,0.00052004,8.003e-05,0.0,0 STARLINK-3903,1 52462U 22049M   23051.37180390  .00008003  00000-0  52004-3 0  9993,2 52462  53.2181  16.9981 0001149  90.6374 269.4750 15.08859359 44171,6917.821,95.436,540.481,538.891,0.0
52462.0,STARLINK-3903,PAYLOAD,2023-02-20 21:38:29,15.08847304,0.000116,53.2175,14.6195,94.3267,265.7858,0.00028689,4.282e-05,0.0,0 STARLINK-3903,1 52462U 22049M   23051.90172715  .00004282  00000-0  28689-3 0  9991,2 52462  53.2175  14.6195 0001160  94.3267 265.7858 15.08847304 44413,6917.858,95.437,540.526,538.921,0.0
52462.0,STARLINK-3903,PAYLOAD,2023-02-21 04:00:01,15.08861513,0.0001154,53.2181,13.4301,104.8976,255.2144,0.00095257,0.00014914,0.0,0 STARLINK-3903,1 52462U 22049M   23052.16668437  .00014914  00000-0  95257-3 0  9999,2 52462  53.2181  13.4301 0001154 104.8976 255.2144 15.08861513 44457,6917.815,95.436,540.478,538.881,0.0
52462.0,STARLINK-3903,PAYLOAD,2023-02-21 21:29:16,15.08859952,0.0001048,53.2189,10.1595,99.4563,260.6547,0.001797,0.00028443,0.0,0 STARLINK-3903,1 52462U 22049M   23052.89532762  .00028443  00000-0  17970-2 0  9997,2 52462  53.2189  10.1595 0001048  99.4563 260.6547 15.08859952 44403,6917.819,95.436,540.409,538.959,0.0
52462.0,STARLINK-3903,PAYLOAD,2023-02-22 03:50:48,15.08853663,0.0001074,53.2188,8.97,89.4153,270.6962,0.002096,0.0003324,0.0,0 STARLINK-3903,1 52462U 22049M   23053.16028665  .00033240  00000-0  20960-2 0  9994,2 52462  53.2188   8.9700 0001074  89.4153 270.6962 15.08853663 44605,6917.839,95.437,540.447,538.961,0.0
52462.0,STARLINK-3903,PAYLOAD,2023-02-22 21:20:03,15.08844418,0.0001278,53.219,5.6989,87.0383,273.0755,0.0012387,0.00019483,0.0,0 STARLINK-3903,1 52462U 22049M   23053.88893263  .00019483  00000-0  12387-2 0  9994,2 52462  53.2190   5.6989 0001278  87.0383 273.0755 15.08844418 44555,6917.867,95.437,540.616,538.848,0.0
52462.0,STARLINK-3903,PAYLOAD,2023-02-23 06:52:22,15.08842212,8.28e-05,53.2185,3.9149,82.8895,277.2192,0.00069542,0.00010798,0.0,0 STARLINK-3903,1 52462U 22049M   23054.28637319  .00010798  00000-0  69542-3 0  9993,2 52462  53.2185   3.9149 0000828  82.8895 277.2192 15.08842212 44774,6917.874,95.437,540.311,539.166,0.0
52462.0,STARLINK-3903,PAYLOAD,2023-02-24 06:43:09,15.08870977,8.16e-05,53.2171,359.4544,78.646,281.4624,0.0011079,0.00017403,0.0,0 STARLINK-3903,1 52462U 22049M   23055.27996528  .00017403  00000-0  11079-2 0  9994,2 52462  53.2171 359.4544 0000816  78.6460 281.4624 15.08870977 44760,6917.786,95.436,540.215,539.086,0.0
52462.0,STARLINK-3903,PAYLOAD,2023-02-24 19:26:14,15.08837404,7.33e-05,53.2169,357.0756,94.0497,266.0579,-0.0002023,-3.505e-05,0.0,0 STARLINK-3903,1 52462U 22049M   23055.80988989 -.00003505  00000-0 -20230-3 0  9995,2 52462  53.2169 357.0756 0000733  94.0497 266.0579 15.08837404 45000,6917.888,95.438,540.26,539.246,0.0
52462.0,STARLINK-3903,PAYLOAD,2023-02-25 04:58:33,15.08847641,8.1e-05,53.2165,355.2918,93.3156,266.7929,0.00045803,7.011e-05,0.0,0 STARLINK-3903,1 52462U 22049M   23056.20732913  .00007011  00000-0  45803-3 0  9991,2 52462  53.2165 355.2918 0000810  93.3156 266.7929 15.08847641 45062,6917.857,95.437,540.282,539.162,0.0
52462.0,STARLINK-3903,PAYLOAD,2023-02-26 03:13:57,15.08853108,9.57e-05,53.2169,351.13,94.6999,265.4102,0.00073871,0.00011492,0.0,0 STARLINK-3903,1 52462U 22049M   23057.13468975  .00011492  00000-0  73871-3 0  9992,2 52462  53.2169 351.1300 0000957  94.6999 265.4102 15.08853108 45207,6917.84,95.437,540.367,539.043,0.0
52462.0,STARLINK-3903,PAYLOAD,2023-02-27 01:29:20,15.08857256,0.0001069,53.2171,346.9643,98.7028,261.4085,0.00041079,6.259e-05,0.0,0 STARLINK-3903,1 52462U 22049M   23058.06204301  .00006259  00000-0  41079-3 0  9996,2 52462  53.2171 346.9643 0001069  98.7028 261.4085 15.08857256 45344,6917.828,95.436,540.432,538.953,0.0
52462.0,STARLINK-3903,PAYLOAD,2023-02-27 22:09:29,15.08711162,0.0001616,53.2168,343.101,140.9969,219.1139,-0.0016262,-0.00025985,0.0,0 STARLINK-3903,1 52462U 22049M   23058.92326067 -.00025985  00000-0 -16262-2 0  9999,2 52462  53.2168 343.1010 0001616 140.9969 219.1139 15.08711162 45478,6918.274,95.446,541.257,539.021,0.0
52462.0,STARLINK-3903,PAYLOAD,2023-02-28 10:52:56,15.08234922,0.0001919,53.2172,340.7219,126.7593,233.3575,-0.0093323,-0.00143479,0.0,0 STARLINK-3903,1 52462U 22049M   23059.45343178 -.00143479  00000-0 -93323-2 0  9992,2 52462  53.2172 340.7219 0001919 126.7593 233.3575 15.08234922 45395,6919.73,95.476,542.923,540.268,0.0
52462.0,STARLINK-3903,PAYLOAD,2023-02-28 22:00:58,15.08165533,0.0001622,53.2166,338.6432,81.1662,278.9514,-0.0062636,-0.00096837,0.0,0 STARLINK-3903,1 52462U 22049M   23059.91734896 -.00096837  00000-0 -62636-2 0  9992,2 52462  53.2166 338.6432 0001622  81.1662 278.9514 15.08165533 45460,6919.943,95.48,542.93,540.685,0.0
52462.0,STARLINK-3903,PAYLOAD,2023-02-28 23:36:25,15.08154171,0.0001632,53.2173,338.3459,93.3564,266.7614,-0.0058117,-0.0008993,0.0,0 STARLINK-3903,1 52462U 22049M   23059.98362386 -.00089930  00000-0 -58117-2 0  9995,2 52462  53.2173 338.3459 0001632  93.3564 266.7614 15.08154171 45632,6919.977,95.481,542.972,540.713,0.0
52462.0,STARLINK-3903,PAYLOAD,2023-03-01 09:08:56,15.08269421,0.0001587,53.2169,336.562,130.1944,229.9187,-0.0016036,-0.00025325,0.0,0 STARLINK-3903,1 52462U 22049M   23060.38121053 -.00025325  00000-0 -16036-2 0  9997,2 52462  53.2169 336.5620 0001587 130.1944 229.9187 15.08269421 45695,6919.625,95.474,542.588,540.392,0.0
52462.0,STARLINK-3903,PAYLOAD,2023-03-01 21:52:11,15.08528756,0.0002,53.2178,334.1841,123.1664,236.952,0.0069539,0.00111184,0.0,0 STARLINK-3903,1 52462U 22049M   23060.91124741  .00111184  00000-0  69539-2 0  9996,2 52462  53.2178 334.1841 0002000 123.1664 236.9520 15.08528756 45616,6918.832,95.457,542.081,539.313,0.0
52462.0,STARLINK-3903,PAYLOAD,2023-03-02 02:38:25,15.08550153,0.0001484,53.2183,333.2947,95.952,264.1641,0.0069036,0.0011043,0.0,0 STARLINK-3903,1 52462U 22049M   23061.11001442  .00110430  00000-0  69036-2 0  9996,2 52462  53.2183 333.2947 0001484  95.9520 264.1641 15.08550153 45805,6918.766,95.456,541.658,539.605,0.0
52462.0,STARLINK-3903,PAYLOAD,2023-03-02 18:32:22,15.08660492,0.0001326,53.2174,330.3192,98.9674,261.1468,0.0057601,0.0009213,0.0,0 STARLINK-3903,1 52462U 22049M   23061.77248760  .00092130  00000-0  57601-2 0  9995,2 52462  53.2174 330.3192 0001326  98.9674 261.1468 15.08660492 45748,6918.429,95.449,541.212,539.377,0.0
52462.0,STARLINK-3903,PAYLOAD,2023-03-03 05:40:04,15.08764166,0.0001239,53.2172,328.2372,97.7602,262.3531,0.0045477,0.00072684,0.0,0 STARLINK-3903,1 52462U 22049M   23062.23616624  .00072684  00000-0  45477-2 0  9995,2 52462  53.2172 328.2372 0001239  97.7602 262.3531 15.08764166 45975,6918.112,95.442,540.834,539.12,0.0
52462.0,STARLINK-3903,PAYLOAD,2023-03-03 21:33:53,15.08842643,0.000138,53.2184,325.2682,72.3431,287.7711,0.00031189,4.68e-05,0.0,0 STARLINK-3903,1 52462U 22049M   23062.89853356  .00004680  00000-0  31189-3 0  9999,2 52462  53.2184 325.2682 0001380  72.3431 287.7711 15.08842643 46075,6917.872,95.437,540.692,538.783,0.0
